SUOMI NPP               
1 37849U 11061A   26136.90368062  .00000029  00000+0  34868-4 0  9995
2 37849  98.7943  77.9960 0002782  67.6144 292.5327 14.19510288754003
YAOGAN-12               
1 37875U 11066B   26136.92964574  .00006664  00000+0  26017-3 0  9998
2 37875  97.1170 176.9726 0009182 348.1850  11.9173 15.26174965807276
BEIDOU-2 M4             
1 38251U 12018B   26136.44040786 -.00000053  00000+0  00000+0 0  9999
2 38251  55.6865 305.1616 0010953 280.5939  79.2611  1.86229502 95355
ARIRANG-3 (KOMPSAT-3)   
1 38338U 12025B   26136.96488725  .00000234  00000+0  55638-4 0  9991
2 38338  98.1160  94.9683 0004702 198.9384 161.1644 14.62176440746786
METOP-B                 
1 38771U 12049A   26136.93577476  .00000060  00000+0  47439-4 0  9994
2 38771  98.6525 189.0550 0003491  84.7970 275.3606 14.21423385708820
SJ-9A                   
1 38860U 12056A   26136.90873313  .00000757  00000+0  93552-4 0  9997
2 38860  97.6692 109.9977 0025680   4.0681 356.0739 14.85401990694944
COSMOS 2484 (RODNIK-S 6)
1 39059U 13001C   26136.91453659 -.00000049  00000+0 -42536-3 0  9998
2 39059  82.5027 241.3325 0027566 102.4986 257.9180 12.42937802604671
SARAL                   
1 39086U 13009A   26136.96617164  .00000043  00000+0  31888-4 0  9995
2 39086  98.5559 323.9288 0002450  45.1653 314.9730 14.32847798691139
STRAND-1                
1 39090U 13009E   26136.72600487  .00000171  00000+0  72075-4 0  9999
2 39090  98.3916 317.7362 0007971 332.7119  27.3648 14.37143382692540
BRITE-AUSTRIA           
1 39091U 13009F   26136.44675937  .00000105  00000+0  50264-4 0  9994
2 39091  98.3987 316.6696 0009720 341.7953  18.2885 14.36528593692493
GAOFEN-1                
1 39150U 13018A   26136.95778603  .00000379  00000+0  61492-4 0  9998
2 39150  97.9108 209.6578 0017308  11.7937 348.3675 14.76538319703630
NEE-01 PEGASO           
1 39151U 13018B   26136.84514408  .00001147  00000+0  11477-3 0  9999
2 39151  98.1182 279.9712 0011304 266.7567  93.2359 14.93493026706022
PROBA-V                 
1 39159U 13021A   26136.70178442  .00000032  00000+0  32065-4 0  9999
2 39159  98.3572 116.8662 0003378 210.8243 149.2739 14.23589914676633
ARIRANG-5 (KOMPSAT-5)   
1 39227U 13042A   26136.97362377  .00000930  00000+0  70788-4 0  9990
2 39227  97.6211 324.1133 0002012 215.0069 145.1025 15.04493680699165
GONETS-M 5              
1 39249U 13048A   26136.96264633  .00000020  00000+0  76949-4 0  9990
2 39249  82.4858   2.8523 0015740 283.2152  76.7172 12.42890885575008
GONETS-M 7              
1 39251U 13048C   26136.92617503  .00000094  00000+0  60655-3 0  9994
2 39251  82.4926   5.7805 0016558 284.5813  75.3430 12.42913934574954
FENGYUN 3C              
1 39260U 13052A   26136.87668882  .00000050  00000+0  46282-4 0  9992
2 39260  98.4965 112.1930 0015763 111.6893 248.5962 14.15747371654136
CASSIOPE                
1 39265U 13055A   26136.90578274  .00028164 -60836-6  31977-3 0  9990
2 39265  80.9136 104.6268 0300763 167.2860 193.6185 15.22760104662904
APRIZESAT 7             
1 39416U 13066A   26136.62312302  .00000887  00000+0  93409-4 0  9997
2 39416  97.7691  90.3023 0034822 317.9803  41.8745 14.91487400676524
ZACUBE-1 (TSHEPISOSAT)  
1 39417U 13066B   26136.94346355  .00003147  00000+0  24755-3 0  9997
2 39417  97.8122  99.1110 0041355 358.0264   2.0789 15.00931000676040
APRIZESAT 8             
1 39425U 13066K   26136.79705295  .00000678  00000+0  79315-4 0  9990
2 39425  97.8206  84.7084 0046803  30.9266 329.4692 14.87579526675002
