OBJECT_NAME,OBJECT_ID,EPOCH,MEAN_MOTION,ECCENTRICITY,INCLINATION,RA_OF_ASC_NODE,ARG_OF_PERICENTER,MEAN_ANOMALY,EPHEMERIS_TYPE,CLASSIFICATION_TYPE,NORAD_CAT_ID,ELEMENT_SET_NO,REV_AT_EPOCH,BSTAR,MEAN_MOTION_DOT,MEAN_MOTION_DDOT
SUOMI NPP,2011-061A,2026-05-16T21:41:18.005568,14.19510288,.00027821,98.7943,77.9960,67.6144,292.5327,0,U,37849,999,75400,.34867799E-4,.29E-6,0
YAOGAN-12,2011-066B,2026-05-16T22:18:41.391936,15.26174965,.00091825,97.1170,176.9726,348.1850,11.9173,0,U,37875,999,80727,.26017038E-3,.6664E-4,0
BEIDOU-2 M4,2012-018B,2026-05-16T10:34:11.239104,1.86229502,.00109536,55.6865,305.1616,280.5939,79.2611,0,U,38251,999,9535,0,-.53E-6,0
ARIRANG-3 (KOMPSAT-3),2012-025B,2026-05-16T23:09:26.258400,14.62176440,.00047023,98.1160,94.9683,198.9384,161.1644,0,U,38338,999,74678,.5563848E-4,.234E-5,0
METOP-B,2012-049A,2026-05-16T22:27:30.939264,14.21423385,.00034918,98.6525,189.0550,84.7970,275.3606,0,U,38771,999,70882,.47438579E-4,.6E-6,0
SJ-9A,2012-056A,2026-05-16T21:48:34.542432,14.85401990,.00256802,97.6692,109.9977,4.0681,356.0739,0,U,38860,999,69494,.93552113E-4,.757E-5,0
COSMOS 2484 (RODNIK-S 6),2013-001C,2026-05-16T21:56:55.961376,12.42937802,.00275662,82.5027,241.3325,102.4986,257.9180,0,U,39059,999,60467,-.42536315E-3,-.49E-6,0
SARAL,2013-009A,2026-05-16T23:11:17.229696,14.32847798,.00024509,98.5559,323.9288,45.1653,314.9730,0,U,39086,999,69113,.31887636E-4,.43E-6,0
STRAND-1,2013-009E,2026-05-16T17:25:26.820768,14.37143382,.00079719,98.3916,317.7362,332.7119,27.3648,0,U,39090,999,69254,.72074586E-4,.171E-5,0
BRITE-AUSTRIA,2013-009F,2026-05-16T10:43:20.009568,14.36528593,.000972,98.3987,316.6696,341.7953,18.2885,0,U,39091,999,69249,.50264E-4,.105E-5,0
GAOFEN-1,2013-018A,2026-05-16T22:59:12.712992,14.76538319,.00173082,97.9108,209.6578,11.7937,348.3675,0,U,39150,999,70363,.61492137E-4,.379E-5,0
NEE-01 PEGASO,2013-018B,2026-05-16T20:17:00.448512,14.93493026,.00113048,98.1182,279.9712,266.7567,93.2359,0,U,39151,999,70602,.11476603E-3,.1147E-4,0
PROBA-V,2013-021A,2026-05-16T16:50:34.173888,14.23589914,.00033783,98.3572,116.8662,210.8243,149.2739,0,U,39159,999,67663,.32064862E-4,.32E-6,0
ARIRANG-5 (KOMPSAT-5),2013-042A,2026-05-16T23:22:01.093728,15.04493680,.00020128,97.6211,324.1133,215.0069,145.1025,0,U,39227,999,69916,.70787744E-4,.93E-5,0
GONETS-M 5,2013-048A,2026-05-16T23:06:12.642912,12.42890885,.00157401,82.4858,2.8523,283.2152,76.7172,0,U,39249,999,57500,.76949077E-4,.2E-6,0
GONETS-M 7,2013-048C,2026-05-16T22:13:41.522592,12.42913934,.00165584,82.4926,5.7805,284.5813,75.3430,0,U,39251,999,57495,.60654539E-3,.94E-6,0
FENGYUN 3C,2013-052A,2026-05-16T21:02:25.914048,14.15747371,.00157636,98.4965,112.1930,111.6893,248.5962,0,U,39260,999,65413,.46282172E-4,.5E-6,0
CASSIOPE,2013-055A,2026-05-16T21:44:19.628736,15.22760104,.03007635,80.9136,104.6268,167.2860,193.6185,0,U,39265,999,66290,.31977139E-3,.28164E-3,-.608359E-6
APRIZESAT 7,2013-066A,2026-05-16T14:57:17.828928,14.91487400,.00348224,97.7691,90.3023,317.9803,41.8745,0,U,39416,999,67652,.9340899E-4,.887E-5,0
ZACUBE-1 (TSHEPISOSAT),2013-066B,2026-05-16T22:38:35.250720,15.00931000,.00413552,97.8122,99.1110,358.0264,2.0789,0,U,39417,999,67604,.24754828E-3,.3147E-4,0
APRIZESAT 8,2013-066K,2026-05-16T19:07:45.374880,14.87579526,.00468035,97.8206,84.7084,30.9266,329.4692,0,U,39425,999,67500,.79315399E-4,.678E-5,0
